[{"OBJECT_NAME":"ALOS (DAICHI)","OBJECT_ID":"2006-002A","EPOCH":"2026-04-14T20:30:33.671232","MEAN_MOTION":14.6991885,"ECCENTRICITY":0.00015616,"INCLINATION":98.1274,"RA_OF_ASC_NODE":60.6456,"ARG_OF_PERICENTER":113.0826,"MEAN_ANOMALY":247.0544,"EPHEMERIS_TYPE":0,"CLASSIFICATION_TYPE":"U","NORAD_CAT_ID":28931,"ELEMENT_SET_NO":999,"REV_AT_EPOCH":7879,"BSTAR":0.00011654775,"MEAN_MOTION_DOT":6.48e-6,"MEAN_MOTION_DDOT":0},{"OBJECT_NAME":"H-2A R/B","OBJECT_ID":"2006-002B","EPOCH":"2026-04-14T22:58:58.766304","MEAN_MOTION":15.17235824,"ECCENTRICITY":0.00526213,"INCLINATION":98.2478,"RA_OF_ASC_NODE":255.1389,"ARG_OF_PERICENTER":117.9927,"MEAN_ANOMALY":242.6643,"EPHEMERIS_TYPE":0,"CLASSIFICATION_TYPE":"U","NORAD_CAT_ID":28932,"ELEMENT_SET_NO":999,"REV_AT_EPOCH":9993,"BSTAR":0.00028552823,"MEAN_MOTION_DOT":5.804e-5,"MEAN_MOTION_DDOT":0},{"OBJECT_NAME":"RESURS-DK 1","OBJECT_ID":"2006-021A","EPOCH":"2026-04-15T05:33:18.335808","MEAN_MOTION":15.12948,"ECCENTRICITY":0.00024666,"INCLINATION":69.9297,"RA_OF_ASC_NODE":142.4871,"ARG_OF_PERICENTER":5.5952,"MEAN_ANOMALY":354.5241,"EPHEMERIS_TYPE":0,"CLASSIFICATION_TYPE":"U","NORAD_CAT_ID":29228,"ELEMENT_SET_NO":999,"REV_AT_EPOCH":9305,"BSTAR":6.1629539e-5,"MEAN_MOTION_DOT":9.81e-6,"MEAN_MOTION_DDOT":0},{"OBJECT_NAME":"CZ-4B R/B","OBJECT_ID":"2006-046C","EPOCH":"2026-04-15T02:00:36.197856","MEAN_MOTION":15.17273954,"ECCENTRICITY":0.00341934,"INCLINATION":97.5525,"RA_OF_ASC_NODE":149.8893,"ARG_OF_PERICENTER":139.4708,"MEAN_ANOMALY":220.9081,"EPHEMERIS_TYPE":0,"CLASSIFICATION_TYPE":"U","NORAD_CAT_ID":29507,"ELEMENT_SET_NO":999,"REV_AT_EPOCH":6556,"BSTAR":0.00013152595,"MEAN_MOTION_DOT":2.587e-5,"MEAN_MOTION_DDOT":0},{"OBJECT_NAME":"CZ-2C R/B","OBJECT_ID":"2007-010B","EPOCH":"2026-04-15T06:56:58.747776","MEAN_MOTION":14.20259758,"ECCENTRICITY":0.00589482,"INCLINATION":98.4021,"RA_OF_ASC_NODE":216.741,"ARG_OF_PERICENTER":186.6636,"MEAN_ANOMALY":173.3764,"EPHEMERIS_TYPE":0,"CLASSIFICATION_TYPE":"U","NORAD_CAT_ID":31114,"ELEMENT_SET_NO":999,"REV_AT_EPOCH":98491,"BSTAR":4.477534e-5,"MEAN_MOTION_DOT":5.6e-7,"MEAN_MOTION_DDOT":0},{"OBJECT_NAME":"COSMO-SKYMED 1","OBJECT_ID":"2007-023A","EPOCH":"2026-04-15T07:14:19.528224","MEAN_MOTION":14.96799092,"ECCENTRICITY":0.00013934,"INCLINATION":97.8879,"RA_OF_ASC_NODE":296.6351,"ARG_OF_PERICENTER":86.1193,"MEAN_ANOMALY":274.0187,"EPHEMERIS_TYPE":0,"CLASSIFICATION_TYPE":"U","NORAD_CAT_ID":31598,"ELEMENT_SET_NO":999,"REV_AT_EPOCH":2038,"BSTAR":9.6837417e-5,"MEAN_MOTION_DOT":1.049e-5,"MEAN_MOTION_DDOT":0},{"OBJECT_NAME":"COSMOS 2428","OBJECT_ID":"2007-029A","EPOCH":"2026-04-15T06:39:18.953280","MEAN_MOTION":14.12948055,"ECCENTRICITY":0.00095109,"INCLINATION":70.9399,"RA_OF_ASC_NODE":126.5501,"ARG_OF_PERICENTER":238.0212,"MEAN_ANOMALY":121.9986,"EPHEMERIS_TYPE":0,"CLASSIFICATION_TYPE":"U","NORAD_CAT_ID":31792,"ELEMENT_SET_NO":999,"REV_AT_EPOCH":96926,"BSTAR":-4.6677557e-5,"MEAN_MOTION_DOT":-1.35e-6,"MEAN_MOTION_DDOT":0},{"OBJECT_NAME":"SL-16 R/B","OBJECT_ID":"2007-029B","EPOCH":"2026-04-15T05:56:12.986592","MEAN_MOTION":14.14841327,"ECCENTRICITY":0.0002751,"INCLINATION":70.9728,"RA_OF_ASC_NODE":95.5362,"ARG_OF_PERICENTER":272.0358,"MEAN_ANOMALY":99.206,"EPHEMERIS_TYPE":0,"CLASSIFICATION_TYPE":"U","NORAD_CAT_ID":31793,"ELEMENT_SET_NO":999,"REV_AT_EPOCH":97054,"BSTAR":-5.2059879e-5,"MEAN_MOTION_DOT":-1.48e-6,"MEAN_MOTION_DDOT":0},{"OBJECT_NAME":"KORONAS-FOTON","OBJECT_ID":"2009-003A","EPOCH":"2026-04-15T07:41:34.421856","MEAN_MOTION":15.4434823,"ECCENTRICITY":0.00107258,"INCLINATION":82.4294,"RA_OF_ASC_NODE":237.7622,"ARG_OF_PERICENTER":29.0683,"MEAN_ANOMALY":331.1159,"EPHEMERIS_TYPE":0,"CLASSIFICATION_TYPE":"U","NORAD_CAT_ID":33504,"ELEMENT_SET_NO":999,"REV_AT_EPOCH":95139,"BSTAR":0.00015932066,"MEAN_MOTION_DOT":7.398e-5,"MEAN_MOTION_DDOT":0},{"OBJECT_NAME":"CZ-2C R/B","OBJECT_ID":"2011-030B","EPOCH":"2026-04-15T07:27:04.659840","MEAN_MOTION":14.81338914,"ECCENTRICITY":0.0051228,"INCLINATION":97.8603,"RA_OF_ASC_NODE":61.8594,"ARG_OF_PERICENTER":230.1808,"MEAN_ANOMALY":291.4034,"EPHEMERIS_TYPE":0,"CLASSIFICATION_TYPE":"U","NORAD_CAT_ID":37731,"ELEMENT_SET_NO":999,"REV_AT_EPOCH":79551,"BSTAR":6.7740003e-5,"MEAN_MOTION_DOT":4.85e-6,"MEAN_MOTION_DDOT":0},{"OBJECT_NAME":"H-2A R/B","OBJECT_ID":"2012-025E","EPOCH":"2026-04-14T20:43:59.970720","MEAN_MOTION":14.95402516,"ECCENTRICITY":0.00438999,"INCLINATION":98.4788,"RA_OF_ASC_NODE":74.8277,"ARG_OF_PERICENTER":192.4524,"MEAN_ANOMALY":167.5614,"EPHEMERIS_TYPE":0,"CLASSIFICATION_TYPE":"U","NORAD_CAT_ID":38341,"ELEMENT_SET_NO":999,"REV_AT_EPOCH":75362,"BSTAR":0.00017519006,"MEAN_MOTION_DOT":1.902e-5,"MEAN_MOTION_DDOT":0},{"OBJECT_NAME":"SHIJIAN-16 (SJ-16)","OBJECT_ID":"2013-057A","EPOCH":"2026-04-15T07:08:35.320992","MEAN_MOTION":14.92455795,"ECCENTRICITY":0.00157451,"INCLINATION":74.9704,"RA_OF_ASC_NODE":115.7804,"ARG_OF_PERICENTER":18.2228,"MEAN_ANOMALY":341.9521,"EPHEMERIS_TYPE":0,"CLASSIFICATION_TYPE":"U","NORAD_CAT_ID":39358,"ELEMENT_SET_NO":999,"REV_AT_EPOCH":67696,"BSTAR":-6.443075e-6,"MEAN_MOTION_DOT":-9.6e-7,"MEAN_MOTION_DDOT":0},{"OBJECT_NAME":"SL-4 R/B","OBJECT_ID":"2014-021B","EPOCH":"2026-04-15T04:00:23.206464","MEAN_MOTION":15.40460271,"ECCENTRICITY":0.0093295,"INCLINATION":51.6058,"RA_OF_ASC_NODE":159.1503,"ARG_OF_PERICENTER":236.2965,"MEAN_ANOMALY":122.9099,"EPHEMERIS_TYPE":0,"CLASSIFICATION_TYPE":"U","NORAD_CAT_ID":39679,"ELEMENT_SET_NO":999,"REV_AT_EPOCH":66189,"BSTAR":0.00015546942,"MEAN_MOTION_DOT":7.003e-5,"MEAN_MOTION_DDOT":0},{"OBJECT_NAME":"ALOS-2","OBJECT_ID":"2014-029A","EPOCH":"2026-04-15T05:46:25.366368","MEAN_MOTION":14.79477965,"ECCENTRICITY":0.00017997,"INCLINATION":97.9196,"RA_OF_ASC_NODE":203.3063,"ARG_OF_PERICENTER":90.2778,"MEAN_ANOMALY":269.864,"EPHEMERIS_TYPE":0,"CLASSIFICATION_TYPE":"U","NORAD_CAT_ID":39766,"ELEMENT_SET_NO":999,"REV_AT_EPOCH":64227,"BSTAR":4.823199e-5,"MEAN_MOTION_DOT":3.09e-6,"MEAN_MOTION_DDOT":0},{"OBJECT_NAME":"YAOGAN-29","OBJECT_ID":"2015-069A","EPOCH":"2026-04-15T07:06:50.115168","MEAN_MOTION":14.83033353,"ECCENTRICITY":9.689e-5,"INCLINATION":98.0093,"RA_OF_ASC_NODE":133.8156,"ARG_OF_PERICENTER":158.4902,"MEAN_ANOMALY":201.6352,"EPHEMERIS_TYPE":0,"CLASSIFICATION_TYPE":"U","NORAD_CAT_ID":41038,"ELEMENT_SET_NO":999,"REV_AT_EPOCH":56130,"BSTAR":3.3098861e-5,"MEAN_MOTION_DOT":2.15e-6,"MEAN_MOTION_DDOT":0},{"OBJECT_NAME":"ASTRO-H (HITOMI)","OBJECT_ID":"2016-012A","EPOCH":"2026-04-15T07:38:10.277664","MEAN_MOTION":15.10227038,"ECCENTRICITY":0.00095612,"INCLINATION":30.998,"RA_OF_ASC_NODE":120.1291,"ARG_OF_PERICENTER":339.4854,"MEAN_ANOMALY":20.54,"EPHEMERIS_TYPE":0,"CLASSIFICATION_TYPE":"U","NORAD_CAT_ID":41337,"ELEMENT_SET_NO":999,"REV_AT_EPOCH":55777,"BSTAR":8.5834293e-5,"MEAN_MOTION_DOT":1.534e-5,"MEAN_MOTION_DDOT":0},{"OBJECT_NAME":"HXMT (HUIYAN)","OBJECT_ID":"2017-034A","EPOCH":"2026-04-15T07:17:08.149056","MEAN_MOTION":15.1792777,"ECCENTRICITY":0.00303898,"INCLINATION":43.0132,"RA_OF_ASC_NODE":173.0386,"ARG_OF_PERICENTER":106.9602,"MEAN_ANOMALY":253.4581,"EPHEMERIS_TYPE":0,"CLASSIFICATION_TYPE":"U","NORAD_CAT_ID":42758,"ELEMENT_SET_NO":999,"REV_AT_EPOCH":48810,"BSTAR":0.00012069076,"MEAN_MOTION_DOT":2.276e-5,"MEAN_MOTION_DDOT":0}]
