ALOS (DAICHI)           
1 28931U 06002A   26104.85455638  .00000648  00000+0  11655-3 0  9996
2 28931  98.1274  60.6456 0001561 113.0826 247.0544 14.69918850 78795
H-2A R/B                
1 28932U 06002B   26104.95762461  .00005804  00000+0  28553-3 0  9997
2 28932  98.2478 255.1389 0052621 117.9927 242.6643 15.17235824 99934
RESURS-DK 1             
1 29228U 06021A   26105.23146222  .00000981  00000+0  61630-4 0  9995
2 29228  69.9297 142.4871 0002466   5.5952 354.5241 15.12948000 93059
CZ-4B R/B               
1 29507U 06046C   26105.08375229  .00002587  00000+0  13153-3 0  9996
2 29507  97.5525 149.8893 0034193 139.4708 220.9081 15.17273954 65560
CZ-2C R/B               
1 31114U 07010B   26105.28956884  .00000056  00000+0  44775-4 0  9993
2 31114  98.4021 216.7410 0058948 186.6636 173.3764 14.20259758984912
COSMO-SKYMED 1          
1 31598U 07023A   26105.30161491  .00001049  00000+0  96837-4 0  9997
2 31598  97.8879 296.6351 0001393  86.1193 274.0187 14.96799092 20380
COSMOS 2428             
1 31792U 07029A   26105.27730270 -.00000135  00000+0 -46678-4 0  9997
2 31792  70.9399 126.5501 0009510 238.0212 121.9986 14.12948055969261
SL-16 R/B               
1 31793U 07029B   26105.24737253 -.00000148  00000+0 -52060-4 0  9999
2 31793  70.9728  95.5362 0002751 272.0358  99.2060 14.14841327970546
KORONAS-FOTON           
1 33504U 09003A   26105.32053729  .00007398  00000+0  15932-3 0  9991
2 33504  82.4294 237.7622 0010725  29.0683 331.1159 15.44348230951392
CZ-2C R/B               
1 37731U 11030B   26105.31047060  .00000485  00000+0  67740-4 0  9995
2 37731  97.8603  61.8594 0051228 230.1808 291.4034 14.81338914795511
H-2A R/B                
1 38341U 12025E   26104.86388855  .00001902  00000+0  17519-3 0  9990
2 38341  98.4788  74.8277 0043899 192.4524 167.5614 14.95402516753620
SHIJIAN-16 (SJ-16)      
1 39358U 13057A   26105.29763103 -.00000096  00000+0 -64431-5 0  9998
2 39358  74.9704 115.7804 0015745  18.2228 341.9521 14.92455795676962
SL-4 R/B                
1 39679U 14021B   26105.16693526  .00007003  00000+0  15547-3 0  9998
2 39679  51.6058 159.1503 0093295 236.2965 122.9099 15.40460271661898
ALOS-2                  
1 39766U 14029A   26105.24057137  .00000309  00000+0  48232-4 0  9994
2 39766  97.9196 203.3063 0001799  90.2778 269.8640 14.79477965642275
YAOGAN-29               
1 41038U 15069A   26105.29641337  .00000215  00000+0  33099-4 0  9991
2 41038  98.0093 133.8156 0000968 158.4902 201.6352 14.83033353561303
ASTRO-H (HITOMI)        
1 41337U 16012A   26105.31817451  .00001534  00000+0  85834-4 0  9996
2 41337  30.9980 120.1291 0009561 339.4854  20.5400 15.10227038557773
HXMT (HUIYAN)           
1 42758U 17034A   26105.30356654  .00002276  00000+0  12069-3 0  9994
2 42758  43.0132 173.0386 0030389 106.9602 253.4581 15.17927770488101
